{
  "version": "0.6",
  "generator": "Overpass API",
  "osm3s": {
    "timestamp_osm_base": "2014-12-16T09:42:02.000Z",
    "timestamp_areas_base": "2014-12-15T21:10:01.000Z",
    "copyright": "The data included in this document is from www.openstreetmap.org. The data is made available under ODbL."
  },
  "elements": [
    {
      "type": "node",
      "id": 272688390,
      "lat": 50.8980498,
      "lon": 11.5743344,
      "tags": {
        "addr:city": "Jena",
        "addr:country": "DE",
        "addr:housenumber": "33a",
        "addr:postcode": "07745",
        "addr:state": "Thüringen",
        "addr:street": "Hermann-Pistor-Straße",
        "addr:suburb": "Winzerla",
        "amenity": "pharmacy",
        "contact:phone": "+49 3641 603655",
        "dispensing": "yes",
        "name": "Ginkgo-Apotheke",
        "wheelchair": "yes"
      }
    },
    {
      "type": "node",
      "id": 292167048,
      "lat": 50.9023117,
      "lon": 11.5723657,
      "tags": {
        "addr:city": "Jena",
        "addr:country": "DE",
        "addr:housename": "Columbus-Center",
        "addr:housenumber": "1",
        "addr:postcode": "07745",
        "addr:state": "Thüringen",
        "addr:street": "Friedrich-Zucker-Straße",
        "addr:suburb": "Winzerla",
        "amenity": "pharmacy",
        "contact:email": "kontakt@columbus-apotheke-jena.de",
        "contact:phone": "+49 3641 603591",
        "contact:website": "http://www.columbus-apotheke-jena.de",
        "dispensing": "yes",
        "name": "Columbus-Apotheke",
        "opening_hours": "Mo-Fr 08:00-18:30;Sa 09:00-13:00",
        "wheelchair": "yes"
      }
    },
    {
      "type": "node",
      "id": 292167049,
      "lat": 50.9000421,
      "lon": 11.5936661,
      "tags": {
        "addr:city": "Jena",
        "addr:country": "DE",
        "addr:housenumber": "12",
        "addr:postcode": "07745",
        "addr:state": "Thüringen",
        "addr:street": "Keßlerstraße",
        "amenity": "pharmacy",
        "contact:fax": "+49 3641 575655",
        "contact:phone": "+49 3641 575657",
        "contact:website": "http://www.burgaupark-apotheke.de",
        "dispensing": "yes",
        "name": "Burgaupark-Apotheke‎",
        "opening_hours": "Mo-Sa 09:00-20:00",
        "wheelchair": "yes"
      }
    },
    {
      "type": "node",
      "id": 292167050,
      "lat": 50.924273,
      "lon": 11.5771669,
      "tags": {
        "addr:city": "Jena",
        "addr:housenumber": "2",
        "addr:postcode": "07745",
        "addr:street": "Otto-Schott-Straße",
        "amenity": "pharmacy",
        "contact:email": "Forst-Apotheke-Jena@arcor.de",
        "contact:fax": "+49 3641 215200",
        "contact:phone": "+49 3641 605528",
        "contact:website": "http://www.forstapothekejena.de",
        "dispensing": "yes",
        "name": "Forst-Apotheke",
        "opening_hours": "Mo-Fr 07:30-18:30; Sa 09:00-12:00",
        "wheelchair": "no"
      }
    },
    {
      "type": "node",
      "id": 292167051,
      "lat": 50.9254659,
      "lon": 11.5819238,
      "tags": {
        "addr:city": "Jena",
        "addr:housenumber": "2",
        "addr:postcode": "07745",
        "addr:street": "Westbahnhofstraße",
        "amenity": "pharmacy",
        "contact:email": "zeissapotheke@t-online.de",
        "contact:fax": "+49 3641 673372",
        "contact:phone": "+49 3641 620658",
        "contact:website": "http://www.zeiss-apotheke.de",
        "dispensing": "yes",
        "name": "Zeiss Apotheke",
        "opening_hours": "Mo-Fr 08:00-18:00",
        "wheelchair": "yes"
      }
    },
    {
      "type": "node",
      "id": 292167052,
      "lat": 50.9275233,
      "lon": 11.5836613,
      "tags": {
        "addr:city": "Jena",
        "addr:housenumber": "1",
        "addr:postcode": "07745",
        "addr:street": "Schillerstraße",
        "amenity": "pharmacy",
        "contact:email": "info@Semmelweis-Apotheke.de",
        "contact:fax": "+49 3641 2313-31",
        "contact:phone": "+49 3641 2313-0",
        "contact:website": "http://www.semmelweis-apotheke.de",
        "dispensing": "yes",
        "name": "Semmelweis Apotheke",
        "opening_hours": "Mo-Fr 08:00-20:00;Sa 09:00-14:00",
        "wheelchair": "yes"
      }
    },
    {
      "type": "node",
      "id": 292170197,
      "lat": 50.9279983,
      "lon": 11.5816819,
      "tags": {
        "addr:city": "Jena",
        "addr:country": "DE",
        "addr:housenumber": "3-4",
        "addr:postcode": "07743",
        "addr:state": "Thüringen",
        "addr:street": "Ernst-Abbe Platz",
        "amenity": "pharmacy",
        "contact:email": "campusapotheke@amz-jena.de",
        "contact:fax": "+49 3641 574101",
        "contact:phone": "+49 3641 574100",
        "contact:website": "http://www.campusapotheke.de",
        "dispensing": "yes",
        "name": "Campus-Apotheke",
        "opening_hours": "Mo-Fr 08:00-20:00;Sa 08:00-17:00",
        "wheelchair": "yes"
      }
    },
    {
      "type": "node",
      "id": 292170198,
      "lat": 50.9265725,
      "lon": 11.5832269,
      "tags": {
        "addr:city": "Jena",
        "addr:country": "DE",
        "addr:housename": "Post-Carré",
        "addr:housenumber": "8",
        "addr:postcode": "07743",
        "addr:state": "Thüringen",
        "addr:street": "Engelplatz",
        "amenity": "pharmacy",
        "contact:email": "info@apothekeimpostcarre.de",
        "contact:fax": "+49 3641 6382-11",
        "contact:phone": "+49 3641 6382-0",
        "contact:website": "http://www.apothekeimpostcarre.de",
        "dispensing": "yes",
        "name": "Apotheke im Post-Carré‎",
        "opening_hours": "Mo-Fr 07:30-18:30; Sa 08:00-12:00",
        "wheelchair": "yes"
      }
    },
    {
      "type": "node",
      "id": 292170199,
      "lat": 50.9275719,
      "lon": 11.582132,
      "tags": {
        "addr:city": "Jena",
        "addr:country": "DE",
        "addr:housename": "Goethe Galerie",
        "addr:housenumber": "3b",
        "addr:postcode": "07743",
        "addr:state": "Thüringen",
        "addr:street": "Goethestraße",
        "amenity": "pharmacy",
        "contact:email": "service@ca-jena.de",
        "contact:fax": "+49 3641 420149",
        "contact:phone": "+49 3641 420150",
        "contact:website": "http://www.centrum-apotheke-jena.de",
        "dispensing": "yes",
        "name": "Centrum-Apotheke",
        "opening_hours": "Mo-Sa 09:00-20:00",
        "wheelchair": "yes"
      }
    },
    {
      "type": "node",
      "id": 292170200,
      "lat": 50.9275376,
      "lon": 11.5865365,
      "tags": {
        "addr:city": "Jena",
        "addr:country": "DE",
        "addr:housenumber": "5",
        "addr:postcode": "07743",
        "addr:street": "Löbderstraße",
        "amenity": "pharmacy",
        "contact:fax": "+49 3641 459521",
        "contact:phone": "+49 3641 45950",
        "contact:website": "http://www.apotheke-jena.de/",
        "dispensing": "yes",
        "name": "Flora Apotheke Jena‎",
        "wheelchair": "yes"
      }
    },
    {
      "type": "node",
      "id": 292170201,
      "lat": 50.9291761,
      "lon": 11.5871858,
      "tags": {
        "addr:city": "Jena",
        "addr:country": "DE",
        "addr:housenumber": "7",
        "addr:postcode": "07743",
        "addr:street": "Weigelstraße",
        "amenity": "pharmacy",
        "contact:email": "hotmail@goethe-apotheke-jena.de",
        "contact:fax": "+49 3641 454599",
        "contact:phone": "+49 3641 454545",
        "contact:website": "http://www.goethe-apotheke-jena.de",
        "dispensing": "yes",
        "name": "Goethe-Apotheke‎",
        "opening_hours": "Mo-Fr 08:00-19:00; Sa 09:00-16:00",
        "wheelchair": "yes"
      }
    },
    {
      "type": "node",
      "id": 292170203,
      "lat": 50.930548,
      "lon": 11.5749693,
      "tags": {
        "addr:city": "Jena",
        "addr:country": "DE",
        "addr:housenumber": "1",
        "addr:postcode": "07743",
        "addr:street": "Wilhelm-Külz-Straße",
        "amenity": "pharmacy",
        "contact:phone": "+49 3641 820867",
        "dispensing": "yes",
        "name": "West Apotheke"
      }
    },
    {
      "type": "node",
      "id": 292170455,
      "lat": 50.9355523,
      "lon": 11.5911126,
      "tags": {
        "addr:city": "Jena",
        "addr:country": "DE",
        "addr:housenumber": "25",
        "addr:postcode": "07743",
        "addr:street": "Spitzweidenweg",
        "amenity": "pharmacy",
        "contact:email": "saaleapotheke@medipolis.de",
        "contact:fax": "+49 3641 442886",
        "contact:phone": "+49 3641 442883",
        "contact:website": "http://www.saaleapotheke-jena.de/",
        "dispensing": "yes",
        "name": "Saale Apotheke‎",
        "opening_hours": "Mo-Fr 08:00-18:00;Sa 09:00-12:00"
      }
    },
    {
      "type": "node",
      "id": 292170456,
      "lat": 50.9362799,
      "lon": 11.5884108,
      "tags": {
        "addr:city": "Jena",
        "addr:country": "DE",
        "addr:housenumber": "17a",
        "addr:postcode": "07743",
        "addr:street": "Dornburger Straße",
        "amenity": "pharmacy",
        "contact:email": "info@apo-noho.de",
        "contact:fax": "+49 3641 8761010",
        "contact:phone": "+49 3641 876100",
        "contact:website": "http://www.apo-noho.de",
        "dispensing": "yes",
        "name": "Apotheke am Nollendorfer Hof‎",
        "opening_hours": "Mo-Fr 07:30-18:30; Sa 08:00-12:00",
        "wheelchair": "limited"
      }
    },
    {
      "type": "node",
      "id": 292171326,
      "lat": 50.9470391,
      "lon": 11.5988371,
      "tags": {
        "addr:city": "Jena",
        "addr:country": "DE",
        "addr:housenumber": "161",
        "addr:postcode": "07743",
        "addr:street": "Dornburger Straße",
        "amenity": "pharmacy",
        "contact:fax": "+49 3641 826823",
        "contact:phone": "+49 3641 826824",
        "contact:website": "http://www.nord-apotheke-jena.de",
        "dispensing": "yes",
        "name": "Nord-Apotheke‎",
        "opening_hours": "Mo-Fr 08:00-18:00;Sa 08:00-12:00",
        "wheelchair": "no"
      }
    },
    {
      "type": "node",
      "id": 297738073,
      "lat": 50.8839901,
      "lon": 11.606712,
      "tags": {
        "addr:city": "Jena",
        "addr:country": "DE",
        "addr:housenumber": "20",
        "addr:postcode": "07747",
        "addr:state": "Thüringen",
        "addr:street": "Karl-Marx-Straße",
        "addr:suburb": "Lobeda-West",
        "amenity": "pharmacy",
        "contact:fax": "+49 3641 380113",
        "contact:phone": "+49 3641 380112",
        "contact:website": "http://www.sonnen-apotheke-jena.de",
        "name": "Sonnen-Apotheke",
        "opening_hours": "Mo-Sa 08:00-20:00",
        "wheelchair": "yes"
      }
    },
    {
      "type": "node",
      "id": 297738326,
      "lat": 50.8812702,
      "lon": 11.6037418,
      "tags": {
        "addr:city": "Jena",
        "addr:country": "DE",
        "addr:housenumber": "43a",
        "addr:postcode": "07747",
        "addr:street": "Stauffenbergstraße",
        "amenity": "pharmacy",
        "contact:email": "Stauffenberg-Apotheke@web.de",
        "contact:fax": "+49 3641 380229",
        "contact:phone": "+49 3641 380230",
        "contact:website": "http://www.stauffenberg-apotheke.de",
        "name": "Stauffenberg-Apotheke"
      }
    },
    {
      "type": "node",
      "id": 332326723,
      "lat": 50.8829066,
      "lon": 11.6187635,
      "tags": {
        "addr:city": "Jena",
        "addr:country": "DE",
        "addr:housenumber": "23",
        "addr:postcode": "07747",
        "addr:state": "Thüringen",
        "addr:street": "Salvador-Allende-Platz",
        "addr:suburb": "Lobeda-Ost",
        "amenity": "pharmacy",
        "contact:email": "hufeland@pharma-online.de",
        "contact:fax": "+49 3641 380119",
        "contact:phone": "+49 3641 380120",
        "contact:website": "http://www.hufeland-apotheke-jena.de",
        "name": "Hufeland-Apotheke",
        "opening_hours": "Mo-Fr 07:30-18:30; Sa 08:00-12:00",
        "wheelchair": "yes"
      }
    },
    {
      "type": "node",
      "id": 332326765,
      "lat": 50.8844598,
      "lon": 11.6201877,
      "tags": {
        "addr:city": "Jena",
        "addr:country": "DE",
        "addr:housenumber": "103",
        "addr:postcode": "07747",
        "addr:street": "Erlanger Allee",
        "amenity": "pharmacy",
        "contact:fax": "+49 3641 336832",
        "contact:phone": "+49 3641 336833",
        "contact:website": "http://www.baeren-apotheke-jena.de",
        "name": "Bären-Apotheke",
        "opening_hours": "Mo-Fr 07:30-18:30; Sa 08:00-12:00",
        "wheelchair": "yes"
      }
    },
    {
      "type": "node",
      "id": 339092157,
      "lat": 50.9212378,
      "lon": 11.57013,
      "tags": {
        "addr:city": "Jena",
        "addr:country": "DE",
        "addr:housenumber": "2a",
        "addr:postcode": "07745",
        "addr:state": "Thüringen",
        "addr:street": "Tatzendpromenade",
        "amenity": "pharmacy",
        "contact:email": "info@tatzend-apotheke.de",
        "contact:fax": "+49 3641 202112",
        "contact:phone": "+49 3641 202110",
        "contact:website": "http://www.tatzend-apotheke.de",
        "name": "Tatzend Apotheke",
        "opening_hours": "Mo-Fr 08:00-18:30;Sa 08:00-12:00",
        "wheelchair": "yes"
      }
    },
    {
      "type": "node",
      "id": 418357097,
      "lat": 50.9283809,
      "lon": 11.5970125,
      "tags": {
        "addr:city": "Jena",
        "addr:country": "DE",
        "addr:housenumber": "1",
        "addr:postcode": "07749",
        "addr:street": "Camsdorfer Ufer",
        "addr:suburb": "Wenigenjena",
        "amenity": "pharmacy",
        "building:level": "0",
        "contact:fax": "+49 3641 420662",
        "contact:phone": "+49 3641 449770",
        "contact:website": "http://schillerapotheke-jena.de",
        "name": "Schiller-Apotheke",
        "opening_hours": "Mo-Fr 08:00-18:00;Sa 09:00-12:00",
        "wheelchair": "yes"
      }
    },
    {
      "type": "node",
      "id": 624223401,
      "lat": 50.9431649,
      "lon": 11.59403,
      "tags": {
        "addr:city": "Jena",
        "addr:country": "DE",
        "addr:housenumber": "2",
        "addr:postcode": "07743",
        "addr:state": "Thüringen",
        "addr:street": "Emil-Höllein-Platz",
        "addr:suburb": "Nord",
        "amenity": "pharmacy",
        "contact:fax": "+49 3641 628255",
        "contact:phone": "+49 3641 628213",
        "contact:website": "http://www.hoellein-apotheke.de",
        "name": "Höllein-Apotheke",
        "wheelchair": "yes"
      }
    },
    {
      "type": "node",
      "id": 1632696601,
      "lat": 50.9281466,
      "lon": 11.5875794,
      "tags": {
        "addr:city": "Jena",
        "addr:country": "DE",
        "addr:housenumber": "2",
        "addr:postcode": "07743",
        "addr:state": "Thüringen",
        "addr:street": "Markt",
        "amenity": "pharmacy",
        "contact:fax": "+49 3641 525220",
        "contact:phone": "+49 3641 52520",
        "contact:website": "http://www.rats-apotheke-jena-app.de",
        "name": "Rats-Apotheke",
        "opening_hours": "Mo-Fr 08:00-19:00;Sa 08:00-14:00",
        "wheelchair": "yes"
      }
    },
    {
      "type": "node",
      "id": 1687566870,
      "lat": 50.8985732,
      "lon": 11.5760205,
      "tags": {
        "addr:city": "Jena",
        "addr:country": "DE",
        "addr:housenumber": "39",
        "addr:postcode": "07745",
        "addr:street": "Anna-Siemsen-Straße",
        "addr:suburb": "Winzerla",
        "amenity": "pharmacy",
        "contact:email": "wackenroder-apotheke@t-online.de",
        "contact:fax": "+49 3641 62105",
        "contact:phone": "+49 3641 62100",
        "contact:website": "http://www.wackenroder-apotheke-jena.de",
        "dispensing": "yes",
        "name": "Wackenroder-Apotheke‎",
        "opening_hours": "Mo-Fr 08:00-18:00;Sa 09:00-12:00"
      }
    },
    {
      "type": "node",
      "id": 2621200488,
      "lat": 50.8833227,
      "lon": 11.6187877,
      "tags": {
        "addr:city": "Jena",
        "addr:housenumber": "25",
        "addr:postcode": "07747",
        "addr:street": "Salvador-Allende-Platz",
        "amenity": "pharmacy",
        "contact:fax": "+49 3641 387721",
        "contact:phone": "+49 3641 238964",
        "contact:website": "http://www.doebereiner-apotheke.de",
        "dispensing": "yes",
        "name": "Döbereiner-Apotheke"
      }
    },
    {
      "type": "node",
      "id": 2964640232,
      "lat": 50.8925715,
      "lon": 11.6069576,
      "tags": {
        "addr:city": "Jena",
        "addr:country": "DE",
        "addr:housenumber": "3",
        "addr:postcode": "07747",
        "addr:street": "Rathausplatz",
        "addr:suburb": "Lobeda",
        "amenity": "pharmacy",
        "contact:email": "burgapothekejena@t-online.de",
        "contact:fax": "+49 3641 334373",
        "contact:phone": "+49 3641 332083",
        "contact:website": "http://www.kernbergapotheke.de",
        "name": "Burg-Apotheke",
        "opening_hours": "Mo-Fr 08:00-18:00;Sa 09:30-11:30"
      }
    },
    {
      "type": "node",
      "id": 2982883043,
      "lat": 50.934405,
      "lon": 11.5990423,
      "tags": {
        "amenity": "pharmacy",
        "contact:fax": "+49 3641 443821",
        "contact:phone": "+49 3641 443822",
        "name": "Apotheke am Jenzig",
        "opening_hours": "Mo-Fr 08:30-18:00; Sa 09:00-12:00"
      }
    },
    {
      "type": "node",
      "id": 3218154062,
      "lat": 50.9320201,
      "lon": 11.6068416,
      "tags": {
        "amenity": "pharmacy",
        "contact:phone": "+49 3641 443767",
        "name": "Apotheke am Steinborn"
      }
    },
    {
      "type": "node",
      "id": 3218154063,
      "lat": 50.9576411,
      "lon": 11.5096441,
      "tags": {
        "addr:city": "Jena",
        "addr:country": "DE",
        "addr:housenumber": "3",
        "addr:postcode": "07751",
        "addr:state": "Thüringen",
        "addr:street": "Weimarische Straße",
        "addr:suburb": "Isserstedt",
        "amenity": "pharmacy",
        "contact:email": "globusapo@globusapo.de",
        "contact:fax": "+49 36425 527632",
        "contact:phone": "+49 36425 527630",
        "contact:website": "http://www.globusapo.com",
        "name": "Apotheke im Globus",
        "opening_hours": "Mo-We,Fr 08:00-20:00;Th,Fr 08:00-22:00"
      }
    },
    {
      "type": "way",
      "id": 153573106,
      "nodes": [
        1662276769,
        1662276770,
        1662276762,
        1662276761,
        1662276769
      ],
      "tags": {
        "addr:city": "Jena",
        "addr:country": "DE",
        "addr:housenumber": "50",
        "addr:postcode": "07749",
        "addr:street": "Friedrich-Engels-Straße",
        "amenity": "pharmacy",
        "building": "yes",
        "contact:email": "info@kernbergapotheke.de",
        "contact:fax": "+49 3641 353439",
        "contact:phone": "+49 3641 368604",
        "contact:website": "http://www.kernbergapotheke.de",
        "dispensing": "yes",
        "name": "Kernberg-Apotheke"
      }
    },
    {
      "type": "node",
      "id": 1662276761,
      "lat": 50.9230306,
      "lon": 11.5984526
    },
    {
      "type": "node",
      "id": 1662276762,
      "lat": 50.9230341,
      "lon": 11.5988325
    },
    {
      "type": "node",
      "id": 1662276769,
      "lat": 50.9231558,
      "lon": 11.5984497
    },
    {
      "type": "node",
      "id": 1662276770,
      "lat": 50.9231594,
      "lon": 11.5988296
    }
  ]
}